HAWK-A                  
1 43765U 18099H   26068.67628545  .00008617  00000+0  36104-3 0  9995
2 43765  97.4051 122.2425 0034260 275.5523  84.1807 15.23231043397949
STARLINK-30400          
1 57937U 23148C   26068.17015527  .00000231  00000+0  19912-4 0  9990
2 57937  53.1615  26.6044 0001096  73.1298 286.9823 15.30192178138346
